CUTE-1 (CO-55)          
1 27844U 03031E   24320.00857915  .00000956  00000+0  43814-3 0  9990
2 27844  98.6786 324.9880 0010800  69.5442 290.6895 14.23640455109276
CUBESAT XI-IV (CO-57)   
1 27848U 03031J   24320.00444156  .00000787  00000+0  36852-3 0  9999
2 27848  98.6817 325.1375 0010743  84.3906 275.8497 14.23027805109038
CUBESAT XI-V            
1 28895U 05043F   24320.10614665  .00004424  00000+0  75596-3 0  9992
2 28895  98.2220  96.4965 0014362 239.0015 120.9780 14.69344994 16830
CUTE-1.7+APD II (CO-65) 
1 32785U 08021C   24320.15402683  .00009813  00000+0  78614-3 0  9995
2 32785  97.7719 284.7150 0010806 182.7889 177.3276 15.00304648898157
AAUSAT-II               
1 32788U 08021F   24320.43345627  .00065987  00000+0  20584-2 0  9999
2 32788  97.6039 302.6018 0006192  50.9751 309.2041 15.32962290901456
CANX-2                  
1 32790U 08021H   24319.85734579  .00008572  00000+0  72484-3 0  9998
2 32790  97.7885 282.9993 0011049 177.9214 182.2056 14.98258973897908
SEEDS II (CO-66)        
1 32791U 08021J   24319.38579730  .00016787  00000+0  10334-2 0  9995
2 32791  97.7077 290.4312 0006504 130.9672 229.2120 15.10059295899219
SWISSCUBE               
1 35932U 09051B   24319.22974855  .00002909  00000+0  61339-3 0  9992
2 35932  98.4493 205.4616 0006081 205.9822 154.1073 14.60202029804445
BEESAT-1                
1 35933U 09051C   24319.61122389  .00002706  00000+0  57654-3 0  9993
2 35933  98.4422 206.5497 0004329 217.2625 142.8275 14.59783646804644
ITUPSAT1                
1 35935U 09051E   24319.59972798  .00002492  00000+0  54499-3 0  9995
2 35935  98.4519 206.2344 0006487 229.2753 130.7883 14.58659527804216
TISAT 1                 
1 36799U 10035E   24320.27564105  .00020629  00000+0  13281-2 0  9999
2 36799  98.0700 216.6443 0006113  80.6158 279.5760 15.08378382779986
AEROCUBE 4.5A           
1 38767U 12048K   24320.00670262  .00027835  00000+0  11269-2 0  9995
2 38767  64.6523 186.5724 0110010 329.5152  29.9605 15.19135790283298
AEROCUBE 4.5B           
1 38768U 12048L   24320.44636367  .00115592  00000+0  19427-2 0  9994
2 38768  64.6460  95.1644 0072930 316.4402  43.0991 15.48152383284628
STRAND-1                
1 39090U 13009E   24319.47780220  .00001104  00000+0  39088-3 0  9999
2 39090  98.3782 143.6769 0009106 157.2391 202.9201 14.36454754613818
BRITE-AUSTRIA           
1 39091U 13009F   24319.55703655  .00000707  00000+0  25749-3 0  9993
2 39091  98.3831 143.0288 0010500 164.9623 195.1878 14.36065290613846
NEE-01 PEGASO           
1 39151U 13018B   24320.30008918  .00006770  00000+0  73891-3 0  9992
2 39151  98.0527  79.2609 0013255 266.2655  93.7045 14.88190784624430
ESTCUBE 1               
1 39161U 13021C   24320.40305465  .00004376  00000+0  61177-3 0  9999
2 39161  97.8116  22.2702 0010000  99.1192 261.1151 14.78071142619458
POPACS 1                
1 39268U 13055D   24319.46384438  .00060095  10312-6  84173-3 0  9990
2 39268  80.9825 336.5726 0337757 323.0603  34.7776 15.11176413584543
POPACS 2                
1 39269U 13055E   24320.29508744  .00035570  00000+0  77426-3 0  9991
2 39269  81.0005  74.4599 0520387 219.5727 136.6396 14.64492797578873
POPACS 3                
1 39270U 13055F   24320.18868962  .00013778  00000+0  36405-3 0  9990
2 39270  81.0035 130.5684 0609376  16.4755 345.5297 14.41689824575386
ZACUBE-1 (TSHEPISOSAT)  
1 39417U 13066B   24320.41796989  .00011949  00000+0  11370-2 0  9991
2 39417  97.7536 273.4517 0048595  22.0425 338.2869 14.92675714594113
WNISAT-1                
1 39423U 13066H   24320.45180815  .00002846  00000+0  54370-3 0  9991
2 39423  97.6651 142.5942 0166563 253.9752 104.3047 14.56130674582656
TRITON-1                
1 39427U 13066M   24320.45194864  .00008353  00000+0  11133-2 0  9992
2 39427  97.8391 233.7324 0097469 315.2870  44.0511 14.76580986588706
DELFI-N3XT              
1 39428U 13066N   24320.29511526  .00016908  00000+0  19359-2 0  9996
2 39428  97.8355 235.0168 0092187 318.7787  40.6490 14.82956430588622
GOMX-1                  
1 39430U 13066Q   24320.41316526  .00004053  00000+0  65219-3 0  9991
2 39430  97.7065 185.6058 0137178 130.8625 230.4563 14.65905586585189
CUBEBUG-2 (LO-74)       
1 39440U 13066AA  24319.74290926  .00006792  00000+0  74412-3 0  9998
2 39440  97.8278 260.5343 0067430 139.4974 221.1289 14.86409011590679
NEE-02 KRYSAOR          
1 39441U 13066AB  24320.30827628  .00005029  00000+0  60954-3 0  9996
2 39441  97.8364 256.2827 0072051 162.4861 197.8862 14.82189544591467
FUNCUBE-1 (AO-73)       
1 39444U 13066AE  24320.44344762  .00016261  00000+0  13993-2 0  9997
2 39444  97.7396 277.0892 0044525   0.9476 359.1822 14.96679226593287
UWE-3                   
1 39446U 13066AG  24319.80438823  .00008446  00000+0  86920-3 0  9996
2 39446  97.7990 266.7368 0059428  83.6746 277.1235 14.89219493591685
BRITE-CA1 (TORONTO)     
1 40020U 14033L   24320.34702187  .00002310  00000+0  37019-3 0  9998
2 40020  97.8989  92.4474 0081000 330.0506  29.6079 14.70507429557182
DUCHIFAT-1              
1 40021U 14033M   24319.51854362  .00025160  00000+0  13240-2 0  9996
2 40021  98.0994 311.9787 0009208 324.1114  35.9497 15.15596831566827
NANOSATC-BR1            
1 40024U 14033Q   24319.50442458  .00019256  00000+0  11972-2 0  9996
2 40024  98.0783 298.6004 0007303  42.1766 318.0023 15.09669259566393
QB50P1                  
1 40025U 14033R   24319.87213902  .00013635  00000+0  97708-3 0  9994
2 40025  98.0605 286.2036 0013420  40.7529 319.4697 15.04436644566008
QB50P2                  
1 40032U 14033Y   24319.45048299  .00012335  00000+0  92301-3 0  9991
2 40032  98.0163 276.3757 0009341 352.5057   7.6025 15.02865176565208
PERSEUS-M2              
1 40037U 14033AD  24320.41257903  .00004431  00000+0  44144-3 0  9998
2 40037  97.9365 251.9295 0014305  59.9405 300.3230 14.92052067564869
PERSEUS-M1              
1 40039U 14033AF  24320.38944587  .00004312  00000+0  43105-3 0  9991
2 40039  97.9141 247.5151 0014153  59.2009 301.0600 14.91924502564724
POLYITAN-1              
1 40042U 14033AJ  24319.45101279  .00019069  00000+0  11984-2 0  9998
2 40042  98.0872 290.6870 0011685   3.0794 357.0503 15.09243173565950
TIGRISAT                
1 40043U 14033AK  24320.40600540  .00006190  00000+0  78799-3 0  9990
2 40043  97.7099 116.9428 0053596 169.4042 190.8314 14.80887107560123
AEROCUBE 6A             
1 40045U 14033AM  24320.04395945  .00011090  00000+0  12010-2 0  9990
2 40045  97.6763 128.0368 0047147 144.2076 216.2316 14.87572899560426
AEROCUBE 6B             
1 40046U 14033AN  24320.45743503  .00012334  00000+0  13039-2 0  9997
2 40046  97.6730 127.2903 0045755 137.5933 222.8835 14.88566694560692
CANX-4                  
1 40055U 14034C   24320.44551580  .00002814  00000+0  38662-3 0  9991
2 40055  98.3798 161.5264 0014453  69.0528 291.2227 14.79148797558934
CANX-5                  
1 40056U 14034D   24320.11142809  .00002928  00000+0  40187-3 0  9997
2 40056  98.3803 161.1893 0014471  70.1854 290.0915 14.79158090558883
UKUBE-1                 
1 40074U 14037F   24320.37189516  .00015982  00000+0  13255-2 0  9993
2 40074  98.3516 260.1382 0001732 319.5948  40.5144 14.98900414561384
BRITE-PL2 (HEWELIUSZ)   
1 40119U 14049B   24320.21931338  .00005084  00000+0  52325-3 0  9990
2 40119  97.8875  59.4040 0014459 223.7083 136.2991 14.90665275555158
AEROCUBE 5C             
1 40965U 15058B   24320.16361567  .00007939  00000+0  67921-3 0  9994
2 40965  64.7692 257.3400 0188573 262.9904  94.9727 14.85457074279433
AEROCUBE 7              
1 40966U 15058C   24320.23004610  .00010209  00000+0  82805-3 0  9998
2 40966  64.7665 249.3131 0182289 262.5757  95.4609 14.87954754279575
FOX-1A (AO-85)          
1 40967U 15058D   24320.21659369  .00008665  00000+0  75595-3 0  9995
2 40967  64.7767 271.6018 0186599 258.7125  99.2965 14.84910930 27398
SINOD-D 1               
1 40968U 15058E   24320.15672636  .00010048  00000+0  82978-3 0  9992
2 40968  64.7770 262.8974 0179354 257.7112 100.3867 14.87673600 30248
SNAP-3 ALICE            
1 40970U 15058G   24320.11297817  .00028817  00000+0  16057-2 0  9992
2 40970  64.7680 209.7064 0138898 255.5640 103.0032 15.05578649 28420
LMRST-SAT               
1 40971U 15058H   24320.19855242  .00008441  00000+0  73527-3 0  9990
2 40971  64.7769 267.2235 0187998 260.1113  97.8729 14.84819720 27392
SNAP-3 EDDIE            
1 40972U 15058J   24320.08332826  .00028345  00000+0  15577-2 0  9992
2 40972  64.7651 202.8762 0139001 256.4581 102.1022 15.06044000 30523
PROPCUBE 3              
1 40973U 15058K   24319.21531731  .00008390  00000+0  69653-3 0  9995
2 40973  64.7704 256.5455 0184063 261.7943  96.2256 14.87052477 28318
BISONSAT                
1 40974U 15058L   24320.34435169  .00018695  00000+0  12414-2 0  9991
2 40974  64.7665 221.1313 0158250 259.0404  99.2874 14.97553691 28344
SNAP-3 JIMI             
1 40975U 15058M   24319.27349268  .00011896  00000+0  90051-3 0  9996
2 40975  64.7688 241.7954 0173285 260.7276  97.4204 14.91411833 27374
PROPCUBE 1 (FLORA)      
1 40976U 15058N   24319.37071370  .00007726  00000+0  70088-3 0  9999
2 40976  64.7753 286.0532 0187020 261.7174  96.2691 14.83525421 30058
SINOD-D 3               
1 40977U 15058P   24320.13864805  .00010121  00000+0  86733-3 0  9996
2 40977  64.7741 275.3369 0179552 260.7126  97.3641 14.86296796 28431
HORYU-4                 
1 41340U 16012D   24320.53712491  .00027217  00000+0  10780-2 0  9991
2 41340  31.0013  64.3052 0009865  83.1063 277.0701 15.24199643481192
RAVAN                   
1 41849U 16067B   24319.46967125  .00022144  00000+0  10164-2 0  9991
2 41849  98.0596 146.6401 0010735 236.5928 123.4279 15.20385187438764
CELTEE 1                
1 41850U 16067C   24319.44464944  .00010068  00000+0  61907-3 0  9996
2 41850  98.1069 137.1460 0001901  60.1681 299.9736 15.10263967438075
